[{"OBJECT_NAME":"STARLINK-5338","OBJECT_ID":"2023-010T","EPOCH":"2026-03-09T22:19:02.839008","MEAN_MOTION":14.98334815,"ECCENTRICITY":0.00027101,"INCLINATION":70.002,"RA_OF_ASC_NODE":23.9157,"ARG_OF_PERICENTER":265.6845,"MEAN_ANOMALY":94.4004,"EPHEMERIS_TYPE":0,"CLASSIFICATION_TYPE":"U","NORAD_CAT_ID":55286,"ELEMENT_SET_NO":999,"REV_AT_EPOCH":17330,"BSTAR":-8.1875883e-5,"MEAN_MOTION_DOT":-1.07e-5,"MEAN_MOTION_DDOT":0},{"OBJECT_NAME":"IRIDIUM 33 DEB","OBJECT_ID":"1997-051CX","EPOCH":"2026-03-09T17:43:24.588192","MEAN_MOTION":14.98094004,"ECCENTRICITY":0.00015404,"INCLINATION":86.3865,"RA_OF_ASC_NODE":350.5598,"ARG_OF_PERICENTER":95.4765,"MEAN_ANOMALY":329.7207,"EPHEMERIS_TYPE":0,"CLASSIFICATION_TYPE":"U","NORAD_CAT_ID":34088,"ELEMENT_SET_NO":999,"REV_AT_EPOCH":90041,"BSTAR":0.0032183732,"MEAN_MOTION_DOT":0.00038264,"MEAN_MOTION_DDOT":0}]
